H1 CPF 01  gfz 2021 12 21 01  8551 tandemx   
H2 1003001  6202 36605    2021 12 21 00 59 42 2021 12 26 00 00 42   120 1 1  0 0 0
H9
10 0 59573  71982.000000  0   -5963114.366   3184052.523   1319877.958
10 0 59573  72102.000000  0   -5978377.234   3396626.002    422688.854
10 0 59573  72222.000000  0   -5885944.683   3549153.261   -481943.794
10 0 59573  72342.000000  0   -5688575.681   3637139.140  -1378098.388
10 0 59573  72462.000000  0   -5390947.770   3657295.475  -2250022.944
10 0 59573  72582.000000  0   -4999544.811   3607628.009  -3082420.585
10 0 59573  72702.000000  0   -4522510.149   3487496.322  -3860722.611
10 0 59573  72822.000000  0   -3969468.751   3297645.356  -4571343.973
10 0 59573  72942.000000  0   -3351325.050   3040209.025  -5201916.790
10 0 59573  73062.000000  0   -2680041.071   2718686.104  -5741497.512
10 0 59573  73182.000000  0   -1968401.467   2337890.558  -6180747.642
10 0 59573  73302.000000  0   -1229766.904   1903875.835  -6512084.757
10 0 59573  73422.000000  0    -477824.159   1423836.072  -6729800.882
10 0 59573  73542.000000  0     273663.527    905986.366  -6830150.660
10 0 59573  73662.000000  0    1011101.663    359424.275  -6811408.905
10 0 59573  73782.000000  0    1721305.554   -206026.757  -6673898.542
10 0 59573  73902.000000  0    2391730.596   -779989.947  -6419984.214
10 0 59573  74022.000000  0    3010689.229  -1351720.439  -6054036.561
10 0 59573  74142.000000  0    3567552.569  -1910301.131  -5582364.518
10 0 59573  74262.000000  0    4052934.119  -2444847.058  -5013118.499
10 0 59573  74382.000000  0    4458852.678  -2944716.663  -4356160.366
10 0 59573  74502.000000  0    4778868.757  -3399723.539  -3622902.676
10 0 59573  74622.000000  0    5008194.235  -3800344.722  -2826119.890
10 0 59573  74742.000000  0    5143772.470  -4137922.264  -1979731.712
10 0 59573  74862.000000  0    5184324.787  -4404851.947  -1098561.803
10 0 59573  74982.000000  0    5130362.477  -4594755.391   -198076.422
10 0 59573  75102.000000  0    4984162.094  -4702630.663    705892.430
10 0 59573  75222.000000  0    4749704.643  -4724975.856   1597433.651
10 0 59573  75342.000000  0    4432579.653  -4659882.312   2460846.218
10 0 59573  75462.000000  0    4039857.510  -4507095.662   3280923.832
10 0 59573  75582.000000  0    3579933.095  -4268043.439   4043229.857
10 0 59573  75702.000000  0    3062343.775  -3945828.214   4734356.461
10 0 59573  75822.000000  0    2497567.776  -3545185.959   5342162.031
10 0 59573  75942.000000  0    1896808.339  -3072412.754   5855983.392
10 0 59573  76062.000000  0    1271767.173  -2535260.039   6266819.552
10 0 59573  76182.000000  0     634413.765  -1942802.483   6567483.106
10 0 59573  76302.000000  0      -3245.426  -1305281.262   6752719.702
10 0 59573  76422.000000  0    -629392.824   -633924.800   6819294.542
10 0 59573  76542.000000  0   -1232617.672     59250.227   6766045.041
10 0 59573  76662.000000  0   -1802123.250    761653.634   6593899.797
10 0 59573  76782.000000  0   -2327919.602   1460349.722   6305863.356
10 0 59573  76902.000000  0   -2800999.315   2142294.575   5906967.056
10 0 59573  77022.000000  0   -3213493.377   2794579.594   5404186.965
10 0 59573  77142.000000  0   -3558805.559   3404677.720   4806328.319
10 0 59573  77262.000000  0   -3831722.291   3960687.026   4123876.993
10 0 59573  77382.000000  0   -4028495.285   4451567.931   3368820.024
10 0 59573  77502.000000  0   -4146895.100   4867368.564   2554436.729
10 0 59573  77622.000000  0   -4186233.506   5199431.822   1695062.986
10 0 59573  77742.000000  0   -4147354.236   5440579.147    805834.951
10 0 59573  77862.000000  0   -4032593.460   5585267.164    -97583.312
10 0 59573  77982.000000  0   -3845709.596   5629713.547   -999284.785
10 0 59573  78102.000000  0   -3591782.739   5571986.167  -1883410.343
10 0 59573  78222.000000  0   -3277087.199   5412053.387  -2734436.431
10 0 59573  78342.000000  0   -2908940.845   5151796.900  -3537453.137
10 0 59573  78462.000000  0   -2495537.110   4794984.785  -4278427.790
10 0 59573  78582.000000  0   -2045762.887   4347207.962  -4944448.012
10 0 59573  78702.000000  0   -1569007.816   3815783.338  -5523939.655
10 0 59573  78822.000000  0   -1074969.613   3209626.595  -6006860.006
10 0 59573  78942.000000  0    -573458.139   2539095.022  -6384862.436
10 0 59573  79062.000000  0     -74202.916   1815805.428  -6651428.650
10 0 59573  79182.000000  0     413331.150   1052432.097  -6801970.086
10 0 59573  79302.000000  0     880118.534    262486.971  -6833899.123
10 0 59573  79422.000000  0    1317736.542   -539915.293  -6746668.814
10 0 59573  79542.000000  0    1718513.142  -1340304.124  -6541779.700
10 0 59573  79662.000000  0    2075658.121  -2124106.727  -6222756.567
10 0 59573  79782.000000  0    2383377.014  -2876906.771  -5795095.007
10 0 59573  79902.000000  0    2636965.619  -3584706.478  -5266178.348
10 0 59573  80022.000000  0    2832884.096  -4234188.403  -4645160.451
10 0 59573  80142.000000  0    2968807.082  -4812967.170  -3942816.515
10 0 59573  80262.000000  0    3043650.439  -5309829.969  -3171367.380
10 0 59573  80382.000000  0    3057573.882  -5714962.980  -2344275.025
10 0 59573  80502.000000  0    3011958.403  -6020154.439  -1476011.055
10 0 59573  80622.000000  0    2909358.896  -6218970.480   -581803.321
10 0 59573  80742.000000  0    2753431.165  -6306898.325    322636.187
10 0 59573  80862.000000  0    2548835.592  -6281450.808   1221394.058
10 0 59573  80982.000000  0    2301120.547  -6142232.676   2098644.007
10 0 59573  81102.000000  0    2016587.011  -5890962.730   2938935.980
10 0 59573  81222.000000  0    1702138.853  -5531452.328   3727475.473
10 0 59573  81342.000000  0    1365122.409  -5069543.257   4450388.905
10 0 59573  81462.000000  0    1013160.377  -4513005.911   5094970.166
10 0 59573  81582.000000  0     653983.266  -3871400.844   5649905.271
10 0 59573  81702.000000  0     295261.765  -3155903.953   6105468.757
10 0 59573  81822.000000  0     -55554.520  -2379102.955   6453687.619
10 0 59573  81942.000000  0    -391389.243  -1554770.963   6688473.836
10 0 59573  82062.000000  0    -705679.786   -697620.089   6805725.442
10 0 59573  82182.000000  0    -992504.051    176962.683   6803394.824
10 0 59573  82302.000000  0   -1246691.366   1053192.168   6681522.192
10 0 59573  82422.000000  0   -1463915.267   1915169.319   6442234.543
10 0 59573  82542.000000  0   -1640767.314   2747169.063   6089711.032
10 0 59573  82662.000000  0   -1774810.984   3533927.791   5630114.225
10 0 59573  82782.000000  0   -1864614.120   4260925.412   5071488.124
10 0 59573  82902.000000  0   -1909760.320   4914658.635   4423624.329
10 0 59573  83022.000000  0   -1910838.358   5482899.337   3697895.043
10 0 59573  83142.000000  0   -1869409.734   5954932.193   2907056.191
10 0 59573  83262.000000  0   -1787955.652   6321765.524   2065023.016
10 0 59573  83382.000000  0   -1669803.316   6576311.582   1186622.314
10 0 59573  83502.000000  0   -1519032.810   6713530.317    287325.656
10 0 59573  83622.000000  0   -1340368.083   6730533.316   -617030.190
10 0 59573  83742.000000  0   -1139054.345   6626646.239  -1510531.888
10 0 59573  83862.000000  0    -920723.846   6403422.966  -2377481.000
10 0 59573  83982.000000  0    -691255.932   6064612.888  -3202676.054
10 0 59573  84102.000000  0    -456634.411   5616087.121  -3971681.014
10 0 59573  84222.000000  0    -222805.359   5065725.441  -4671077.680
10 0 59573  84342.000000  0       4461.108   4423265.570  -5288696.117
10 0 59573  84462.000000  0     219702.393   3700120.133  -5813819.737
10 0 59573  84582.000000  0     417885.046   2909164.337  -6237362.143
10 0 59573  84702.000000  0     594513.397   2064500.262  -6552012.739
10 0 59573  84822.000000  0     745724.173   1181204.079  -6752351.355
10 0 59573  84942.000000  0     868365.378    275058.911  -6834932.340
10 0 59573  85062.000000  0     960058.161   -637722.623  -6798337.434
10 0 59573  85182.000000  0    1019240.822  -1540782.480  -6643196.238
10 0 59573  85302.000000  0    1045194.658  -2417901.785  -6372175.318
10 0 59573  85422.000000  0    1038052.106  -3253284.491  -5989939.187
10 0 59573  85542.000000  0     998785.647  -4031839.613  -5503080.008
10 0 59573  85662.000000  0     929177.990  -4739453.780  -4920013.255
10 0 59573  85782.000000  0     831774.893  -5363249.701  -4250843.920
10 0 59573  85902.000000  0     709819.814  -5891828.180  -3507202.350
10 0 59573  86022.000000  0     567172.008  -6315486.553  -2702050.123
10 0 59573  86142.000000  0     408209.929  -6626408.925  -1849459.839
10 0 59573  86262.000000  0     237721.630  -6818823.836   -964370.349
10 0 59573  86382.000000  0      60784.348  -6889122.691    -62321.902
99
